[{"OBJECT_NAME":"ONEWEB-0338","OBJECT_ID":"2021-083U","EPOCH":"2026-03-09T15:34:00.037920","MEAN_MOTION":13.20770455,"ECCENTRICITY":0.000176,"INCLINATION":87.9161,"RA_OF_ASC_NODE":294.3334,"ARG_OF_PERICENTER":95.9934,"MEAN_ANOMALY":264.1399,"EPHEMERIS_TYPE":0,"CLASSIFICATION_TYPE":"U","NORAD_CAT_ID":49204,"ELEMENT_SET_NO":999,"REV_AT_EPOCH":22367,"BSTAR":0.0002034,"MEAN_MOTION_DOT":9.6e-7,"MEAN_MOTION_DDOT":0},{"OBJECT_NAME":"FENGYUN 1C DEB","OBJECT_ID":"1999-025AQS","EPOCH":"2026-03-09T01:28:31.050336","MEAN_MOTION":13.67055719,"ECCENTRICITY":0.02345904,"INCLINATION":99.5212,"RA_OF_ASC_NODE":113.2013,"ARG_OF_PERICENTER":48.622,"MEAN_ANOMALY":313.4838,"EPHEMERIS_TYPE":0,"CLASSIFICATION_TYPE":"U","NORAD_CAT_ID":30684,"ELEMENT_SET_NO":999,"REV_AT_EPOCH":94808,"BSTAR":0.0014376814,"MEAN_MOTION_DOT":1.412e-5,"MEAN_MOTION_DDOT":0}]
